BEIDOU-2 IGSO-1 (C06)   
1 36828U 10036A   23155.58374698 -.00000038  00000+0  00000+0 0  9993
2 36828  54.2319 173.0060 0038050 191.9556 204.9495  1.00295580 47095
BEIDOU-2 G4 (C04)       
1 37210U 10057A   23155.49094141 -.00000096  00000+0  00000+0 0  9998
2 37210   0.9874  55.2973 0001768 146.3195  27.8293  1.00271894 46176
BEIDOU-2 IGSO-2 (C07)   
1 37256U 10068A   23155.17443017 -.00000212  00000+0  00000+0 0  9995
2 37256  49.5790 285.4220 0027023 201.5717 294.9405  1.00255591 45672
BEIDOU-2 IGSO-3 (C08)   
1 37384U 11013A   23155.22933984 -.00000197  00000+0  00000+0 0  9993
2 37384  60.8014  50.7951 0022754 179.4269 210.7398  1.00262036 44548
BEIDOU-2 IGSO-4 (C09)   
1 37763U 11038A   23155.50415572  .00000085  00000+0  00000+0 0  9995
2 37763  54.5047 175.5324 0111239 228.4016 122.6038  1.00292292 43523
BEIDOU-2 IGSO-5 (C10)   
1 37948U 11073A   23153.20379128 -.00000160  00000+0  00000+0 0  9995
2 37948  49.7052 285.1048 0088762 218.5680 273.1015  1.00254438 41998
BEIDOU-2 G5 (C05)       
1 38091U 12008A   23155.54245581  .00000071  00000+0  00000+0 0  9998
2 38091   1.5011  66.3841 0003603 285.7155 154.6482  1.00274945 41258
BEIDOU-2 M3 (C11)       
1 38250U 12018A   23154.84189123 -.00000063  00000+0  00000+0 0  9999
2 38250  56.5599 341.9361 0020325 258.3813 101.4085  1.86231136 75280
BEIDOU-2 M4 (C12)       
1 38251U 12018B   23153.70013697 -.00000062  00000+0  00000+0 0  9995
2 38251  56.4724 341.2740 0011228 261.2906  98.6030  1.86234180 75269
BEIDOU-2 M6 (C14)       
1 38775U 12050B   23153.94682889  .00000003  00000+0  00000+0 0  9997
2 38775  55.6272  99.9016 0014726 328.9445  30.9279  1.86231175 72630
BEIDOU-2 G6 (C02)       
1 38953U 12059A   23155.63252608 -.00000161  00000+0  00000+0 0  9990
2 38953   1.8028  82.3823 0010956 317.2705 164.8380  1.00274344 38793
BEIDOU-3S IGSO-1S (C31) 
1 40549U 15019A   23155.38799287 -.00000194  00000+0  00000+0 0  9990
2 40549  51.2695 308.6468 0038387 191.6372 348.7422  1.00276637 29952
BEIDOU-3S M2S (C57)     
1 40748U 15037A   23154.91011457 -.00000064  00000+0  00000+0 0  9991
2 40748  55.7150 339.8853 0004726  47.9027 312.1524  1.86233256 53467
BEIDOU-3S M1S (C58)     
1 40749U 15037B   23154.71036596 -.00000064  00000+0  00000+0 0  9991
2 40749  55.7182 339.8830 0004034   1.8685 358.1484  1.86232896 53463
BEIDOU-3S IGSO-2S (C56) 
1 40938U 15053A   23155.17562000 -.00000138  00000+0  00000+0 0  9996
2 40938  50.9526 271.8152 0047483 194.1422 304.0871  1.00258132 28238
BEIDOU-2 IGSO-6 (C13)   
1 41434U 16021A   23155.14429247 -.00000161  00000+0  00000+0 0  9992
2 41434  58.6138  49.2107 0045712 223.9847 124.1368  1.00257655 26358
BEIDOU-2 G7 (C03)       
1 41586U 16037A   23155.64603773 -.00000339  00000+0  00000+0 0  9997
2 41586   1.6622  66.7733 0009165 354.9302 174.2090  1.00267569 25671
BEIDOU-3 M1 (C19)       
1 43001U 17069A   23154.25024310  .00000002  00000+0  00000+0 0  9993
2 43001  55.7792  99.9387 0011706 299.4806  60.3620  1.86231446 37937
BEIDOU-3 M2 (C20)       
1 43002U 17069B   23155.26066043  .00000002  00000+0  00000+0 0  9995
2 43002  55.7793  99.9404 0009772 319.6036  40.2834  1.86231089 37947
BEIDOU-3 M7 (C27)       
1 43107U 18003A   23155.01213232 -.00000066  00000+0  00000+0 0  9998
2 43107  55.1701 340.6440 0005464  66.7809 293.2922  1.86232390 36699
BEIDOU-3 M8 (C28)       
1 43108U 18003B   23154.94947260 -.00000066  00000+0  00000+0 0  9995
2 43108  55.1632 340.6336 0001965 253.8074 106.1865  1.86230856 36707
BEIDOU-3 M4 (C22)       
1 43207U 18018A   23154.31823046  .00000002  00000+0  00000+0 0  9996
2 43207  55.7381 100.0386 0007045 339.0177  20.9124  1.86231388 36075
BEIDOU-3 M3 (C21)       
1 43208U 18018B   23154.38481912  .00000002  00000+0  00000+0 0  9996
2 43208  55.7376 100.0409 0009602 309.6390  50.2354  1.86231299 36079
BEIDOU-3 M9 (C29)       
1 43245U 18029A   23155.14523074 -.00000066  00000+0  00000+0 0  9991
2 43245  55.0686 338.3815 0001019  79.1150 280.9079  1.86232456 35241
BEIDOU-3 M10 (C30)      
1 43246U 18029B   23154.53847023 -.00000065  00000+0  00000+0 0  9996
2 43246  55.0659 338.4309 0004261  19.0358 340.9936  1.86232835 35213
BEIDOU-2 IGSO-7 (C16)   
1 43539U 18057A   23155.59094029 -.00000040  00000+0  00000+0 0  9992
2 43539  55.1040 172.6359 0061458 231.4473 172.7218  1.00258762 18033
BEIDOU-3 M5 (C23)       
1 43581U 18062A   23154.22230365  .00000074  00000+0  00000+0 0  9995
2 43581  54.1903 220.0919 0004678 269.5024  90.5368  1.86231895 32965
BEIDOU-3 M6 (C24)       
1 43582U 18062B   23155.16099125  .00000074  00000+0  00000+0 0  9997
2 43582  54.1899 220.0494 0004079 358.5101   1.5843  1.86229455 32989
BEIDOU-3 M12 (C26)      
1 43602U 18067A   23155.63519785  .00000074  00000+0  00000+0 0  9996
2 43602  54.2765 218.6796 0006525  12.3897 347.7233  1.86231706 32472
BEIDOU-3 M11 (C25)      
1 43603U 18067B   23155.23203885  .00000076  00000+0  00000+0 0  9996
2 43603  54.2737 218.6593 0003643 356.4327   3.6614  1.86231607 32498
BEIDOU-3 M13 (C32)      
1 43622U 18072A   23155.18996402  .00000001  00000+0  00000+0 0  9999
2 43622  55.7076  99.5520 0008212 298.0803  61.7965  1.86231545 32006
BEIDOU-3 M14 (C33)      
1 43623U 18072B   23155.05542324  .00000001  00000+0  00000+0 0  9996
2 43623  55.7094  99.5491 0006228 319.8956  40.0180  1.86231565 31998
BEIDOU-3 M16 (C35)      
1 43647U 18078A   23155.21568842 -.00000066  00000+0  00000+0 0  9991
2 43647  54.9643 338.5087 0007675  18.8631 341.1768  1.86227221 31503
BEIDOU-3 M15 (C34)      
1 43648U 18078B   23154.81182437 -.00000066  00000+0  00000+0 0  9999
2 43648  54.9603 338.5270 0004878  34.1354 325.9087  1.86232176 31519
BEIDOU-3 G1 (C59)       
1 43683U 18085A   23155.58938604 -.00000264  00000+0  00000+0 0  9996
2 43683   1.3228 131.2204 0004793 322.6965 150.9695  1.00265699 16944
BEIDOU-3 M17 (C36)      
1 43706U 18093A   23154.42372956  .00000075  00000+0  00000+0 0  9994
2 43706  54.2726 219.9956 0009854 274.9657  85.0156  1.86231976 30859
BEIDOU-3 M18 (C37)      
1 43707U 18093B   23154.82554102  .00000075  00000+0  00000+0 0  9994
2 43707  54.2733 219.9733 0007830 300.2499  59.7677  1.86229739 30872
BEIDOU-3 IGSO-1 (C38)   
1 44204U 19023A   23155.57774494 -.00000231  00000+0  00000+0 0  9997
2 44204  57.0802  49.2141 0018646 202.1843 326.7234  1.00256244 15225
BEIDOU-2 G8 (C01)       
1 44231U 19027A   23155.57400840 -.00000233  00000+0  00000+0 0  9994
2 44231   1.7294  81.2265 0004529 119.6246  43.0739  1.00269313 14963
BEIDOU-3 IGSO-2 (C39)   
1 44337U 19035A   23155.46694627 -.00000046  00000+0  00000+0 0  9998
2 44337  55.1464 168.6001 0030807 202.6852 165.7117  1.00249359 14559
BEIDOU-3 M24 (C46)      
1 44542U 19061A   23154.89795780  .00000075  00000+0  00000+0 0  9994
2 44542  54.4998 220.1905 0007452 337.4900  22.5724  1.86231185 25131
BEIDOU-3 M23 (C45)      
1 44543U 19061B   23155.57900520  .00000072  00000+0  00000+0 0  9998
2 44543  54.4979 220.1370 0005020 318.6160  49.8281  1.86231579 25154
BEIDOU-3 IGSO-3 (C40)   
1 44709U 19073A   23152.79259417 -.00000209  00000+0  00000+0 0  9991
2 44709  56.6936 292.7406 0032089 178.4936 181.4424  1.00256524 13318
BEIDOU-3 M22 (C44)      
1 44793U 19078A   23155.27986503 -.00000066  00000+0  00000+0 0  9999
2 44793  54.8127 338.4850 0006714  27.1022 332.9441  1.86232121 23994
BEIDOU-3 M21 (C43)      
1 44794U 19078B   23154.87371139 -.00000066  00000+0  00000+0 0  9998
2 44794  54.7870 338.4832 0004561  26.9700 333.0661  1.86232612 23998
BEIDOU-3 M19 (C41)      
1 44864U 19090A   23154.30420508  .00000002  00000+0  00000+0 0  9992
2 44864  55.6414  99.7740 0018639 278.6545 253.5478  1.86231707 23568
BEIDOU-3 M20 (C42)      
1 44865U 19090B   23155.24385875  .00000002  00000+0  00000+0 0  9994
2 44865  55.6440  99.7751 0016794 291.4104 240.5899  1.86231585 23561
BEIDOU-3 G2 (C60)       
1 45344U 20017A   23155.63214174 -.00000127  00000+0  00000+0 0  9993
2 45344   2.0088  11.3275 0003302  93.2669  95.8076  1.00270111 12148
BEIDOU-3 G3 (C61)       
1 45807U 20040A   23155.61340517 -.00000338  00000+0  00000+0 0  9996
2 45807   0.7276 327.9415 0005872 318.3319 297.9227  1.00268592 10955
BEIDOU-3 G4             
1 56564U 23066A   23155.60889366 -.00000094  00000+0  00000+0 0  9997
2 56564   3.0702 289.3567 0006938 183.7158 158.9295  1.00272011   271
